satname,norad_id,inclination_deg,eccentricity,mean_motion_rev_per_day,perigee_km,apogee_km,l1,l2
STARLINK-1272,45386,53.0514,0.0008153,15.38048288,446.3126854121365,457.4497130878335,1 45386U 20019AC  25330.85065198  .00062920  00000+0  16510-2 0  9996,2 45386  53.0514 240.6912 0008153  98.4774 261.7153 15.38048288314613
STARLINK-1274,45387,53.0334,0.0004591,15.32030838,466.61009510141776,472.8978285825815,1 45387U 20019AD  25330.70799932  .00061616  00000+0  19600-2 0  9995,2 45387  53.0334 229.6699 0004591  54.5459 305.5969 15.32030838314751
STARLINK-1280,45388,53.0531,0.0009391,15.44365057,426.8477974080015,439.64093388896345,1 45388U 20019AE  25330.82563727  .00086881  00000+0  18389-2 0  9994,2 45388  53.0531 259.2146 0009391  86.7758 273.4321 15.44365057314346
STARLINK-1283,45389,53.0529,0.0009332,15.33902691,457.7964948389599,470.5669985477871,1 45389U 20019AF  25330.49359022  .00048266  00000+0  14513-2 0  9999,2 45389  53.0529 241.6475 0009332  93.6140 266.5928 15.33902691314571
STARLINK-1284,45390,53.054,0.0002543,15.06409067,545.4226599569847,548.9448781001129,1 45390U 20019AG  25330.78246272  .00000341  00000+0  41814-4 0  9993,2 45390  53.0540 248.5913 0002543  87.9015 272.2265 15.06409067314491
STARLINK-1297,45395,53.0539,0.0002575,15.0639707,545.437258414805,549.0038175468662,1 45395U 20019AM  25330.48759663  .00000734  00000+0  68192-4 0  9992,2 45395  53.0539 249.9091 0002575  78.7215 281.4063 15.06397070313634
STARLINK-1307,45397,53.0533,0.0001866,15.06411661,545.8835555113128,548.4680822553191,1 45397U 20019AP  25330.48021071  .00003736  00000+0  26952-3 0  9991,2 45397  53.0533 249.9387 0001866  58.5015 301.6156 15.06411661314276
STARLINK-1255,45399,53.0466,0.0007086,15.33846623,459.4999025248553,469.1970729580826,1 45399U 20019AR  25330.43673962  .00053265  00000+0  16031-2 0  9998,2 45399  53.0466 232.9887 0007086 100.8398 259.3400 15.33846623314490
STARLINK-1260,45404,53.052,0.0001361,15.06394604,546.2855537609194,548.1706381400363,1 45404U 20019AW  25330.48113426  .00005258  00000+0  37163-3 0  9993,2 45404  53.0520 239.9363 0001361  80.2788 279.8355 15.06394604314301
STARLINK-1263,45405,53.0536,0.0001961,15.06398946,545.8567268126717,548.5728497840419,1 45405U 20019AX  25330.46640446  .00001740  00000+0  13567-3 0  9993,2 45405  53.0536 240.0079 0001961  91.9923 268.1291 15.06398946314305
STARLINK-1265,45406,53.0529,0.0001836,15.0640022,545.9393897986038,548.482377541487,1 45406U 20019AY  25330.73915470 -.00003148  00000+0 -19248-3 0  9994,2 45406  53.0529 238.7829 0001836  93.1130 267.0069 15.06400220314344
STARLINK-1278,45408,53.0529,0.0008557,15.3717842,448.6109802682049,460.3042827205454,1 45408U 20019BA  25330.52867999  .00069551  00000+0  18742-2 0  9990,2 45408  53.0529 262.3015 0008557  80.2194 279.9774 15.37178420314006
STARLINK-1296,45412,53.0545,0.0001759,15.06410054,545.9625806565218,548.3989074388764,1 45412U 20019BE  25330.47744839  .00001753  00000+0  13651-3 0  9991,2 45412  53.0545 239.9545 0001759  78.5354 281.5832 15.06410054314307
STARLINK-1298,45413,53.0447,0.0008778,15.56984242,390.44412874746104,402.3374897693948,1 45413U 20019BF  25330.80017925  .00101028  00000+0  13627-2 0  9996,2 45413  53.0447 205.5756 0008778  55.2432 304.9404 15.56984242314911
STARLINK-1309,45414,53.0532,0.0001468,15.064058,546.1771432718933,548.2104203894387,1 45414U 20019BG  25330.75758818  .00000851  00000+0  76036-4 0  9991,2 45414  53.0532 238.7006 0001468  79.9612 280.1543 15.06405800314333
STARLINK-1316,45415,53.0536,0.0001603,15.06402817,546.0927922625951,548.3130562423103,1 45415U 20019BH  25330.45165417  .00001047  00000+0  89204-4 0  9995,2 45415  53.0536 240.0719 0001603  85.1422 274.9750 15.06402817314329
STARLINK-1318,45416,53.0476,0.0005466,15.64019064,372.36954661591335,379.75323629745344,1 45416U 20019BJ  25330.79126822  .00074519  00000+0  77249-3 0  9999,2 45416  53.0476 195.7528 0005466 124.1115 236.0418 15.64019064314963
STARLINK-1286,45417,53.0536,0.000509,15.38853755,446.02241265816065,452.972944761088,1 45417U 20019BK  25330.52984638  .00033940  00000+0  87605-3 0  9998,2 45417  53.0536 262.4156 0005090  82.1367 278.0213 15.38853755314272
STARLINK-1308,45419,53.0555,0.0001575,15.06392141,546.1448985545449,548.3263909376401,1 45419U 20019BM  25330.55210818  .00001028  00000+0  87893-4 0  9997,2 45419  53.0555 269.6187 0001575  89.6241 270.4929 15.06392141313928
STARLINK-1329,45531,53.0535,0.0001375,15.06404796,546.2446255224231,548.1490923336278,1 45531U 20025A   25330.38807224  .00002626  00000+0  19510-3 0  9998,2 45531  53.0535 210.3582 0001375  90.4517 269.6629 15.06404796309525
STARLINK-1338,45532,53.0523,0.0001598,15.06409046,546.0771671207049,548.290499659056,1 45532U 20025B   25330.66451076  .00000864  00000+0  76887-4 0  9993,2 45532  53.0523 209.1158 0001598  82.4921 277.6250 15.06409046309561
STARLINK-1350,45535,53.0726,0.0002305,15.33120388,464.9314708745205,468.08685275511743,1 45535U 20025E   25330.76329405  .00011533  00000+0  36630-3 0  9993,2 45535  53.0726 155.4454 0002305 101.2125 258.9135 15.33120388310356
STARLINK-1362,45538,53.0523,0.0003104,15.06445557,544.9223509597505,549.2215206671044,1 45538U 20025H   25330.69669921  .00008330  00000+0  57678-3 0  9994,2 45538  53.0523 208.6899 0003104  88.0469 272.0875 15.06445557309577
STARLINK-1368,45540,53.0539,0.0001934,15.06409011,545.8445835888433,548.5232977286896,1 45540U 20025K   25330.36964082  .00000960  00000+0  83353-4 0  9998,2 45540  53.0539 210.4406 0001934  90.4307 269.6903 15.06409011309512
STARLINK-1371,45542,53.0533,0.0001826,15.06393899,545.9656846266098,548.4948287487532,1 45542U 20025M   25330.67189135  .00000072  00000+0  23742-4 0  9992,2 45542  53.0533 209.0808 0001826  91.7150 268.4049 15.06393899309567
STARLINK-1372,45543,53.0525,0.0002499,15.0637319,545.5630628066938,549.0243930845209,1 45543U 20025N   25330.64241983 -.00006606  00000+0 -42522-3 0  9997,2 45543  53.0525 209.2172 0002499  86.3960 273.7315 15.06373190308657
STARLINK-1373,45544,53.0502,0.0001447,15.06400244,546.2087122853973,548.2129079416454,1 45544U 20025P   25330.66083413  .00001065  00000+0  90351-4 0  9998,2 45544  53.0502 209.1317 0001447  79.9321 280.1831 15.06400244309561
STARLINK-1294,45551,53.0463,0.000501,15.64566468,371.10281497670985,377.8689431015073,1 45551U 20025W   25330.72581782  .00090911  00000+0  91932-3 0  9998,2 45551  53.0463 131.5399 0005010 140.7993 219.3385 15.64566468310661
STARLINK-1325,45554,53.0512,0.0005617,15.72390689,348.2861897481507,355.8469004106937,1 45554U 20025Z   25330.91673610  .00270619  00000+0  19353-2 0  9995,2 45554  53.0512 122.8153 0005617 306.4475 236.9410 15.72390689  6013
STARLINK-1327,45555,53.0519,0.0001882,15.06395343,545.9224777245217,548.5291842941133,1 45555U 20025AA  25330.76588123  .00007914  00000+0  54963-3 0  9996,2 45555  53.0519 188.6583 0001882  82.3604 277.7599 15.06395343309850
STARLINK-1356,45564,53.0531,0.0001551,15.06404062,546.124988890856,548.2732281517192,1 45564U 20025AK  25330.76956812 -.00000129  00000+0  10240-4 0  9993,2 45564  53.0531 188.6418 0001551 100.4085 259.7079 15.06404062309851
STARLINK-1357,45565,53.059,0.0010256,15.36491304,449.4848972205109,463.5040933436321,1 45565U 20025AL  25330.77055676  .00079541  00000+0  21859-2 0  9992,2 45565  53.0590 168.5145 0010256 104.6234 255.5906 15.36491304310140
STARLINK-1361,45567,53.0531,0.0001968,15.06398062,545.8545878703881,548.5804074006583,1 45567U 20025AN  25330.78799566 -.00002014  00000+0 -11636-3 0  9994,2 45567  53.0531 188.5588 0001968  86.3225 273.7989 15.06398062309860
STARLINK-1363,45568,53.0516,0.0006798,15.45854608,424.24073051902815,433.4955346973211,1 45568U 20025AP  25330.76852255  .00091188  00000+0  18344-2 0  9998,2 45568  53.0516 179.3685 0006798 144.5966 215.5492 15.45854608309987
STARLINK-1366,45569,53.0501,0.0004999,15.43290003,433.00060803290853,439.81378932274674,1 45569U 20025AQ  25330.75905287  .00052068  00000+0  11529-2 0  9994,2 45569  53.0501 179.1889 0004999 143.8375 216.2968 15.43290003309980
STARLINK-1376,45570,53.0539,0.0001492,15.06395197,546.1930142794827,548.2595426817816,1 45570U 20025AR  25330.85065981 -.00000847  00000+0 -37993-4 0  9990,2 45570  53.0539 188.2823 0001492  89.2754 270.8406 15.06395197309860
STARLINK-1320,45572,53.0558,0.0008939,15.45801948,422.9378053632445,435.10764552038836,1 45572U 20025AT  25330.73405778  .00073684  00000+0  14891-2 0  9998,2 45572  53.0558 125.1164 0008939 105.0458 255.1538 15.45801948310764
STARLINK-1321,45573,53.0538,0.000187,15.06400008,545.9164932436797,548.5065735951785,1 45573U 20025AU  25330.77048936  .00000032  00000+0  21072-4 0  9990,2 45573  53.0538 178.6415 0001870  87.5548 272.5655 15.06400008309698
STARLINK-1328,45576,53.047,0.0006781,15.7864493,329.7273821920671,338.83076086827623,1 45576U 20025AX  25330.91673610  .00299227  00000+0  16223-2 0  9998,2 45576  53.0470 141.6503 0006781 135.9041  50.2752 15.78644930  5860
STARLINK-1331,45578,53.055,0.0001605,15.06393167,546.1209783735276,548.3440219830854,1 45578U 20025AZ  25330.74837523 -.00000095  00000+0  12550-4 0  9991,2 45578  53.0550 178.7408 0001605  91.7242 268.3931 15.06393167310008
STARLINK-1333,45580,53.0524,0.000127,15.06389892,546.3630144744029,548.1220608769718,1 45580U 20025BB  25330.75481863  .00000860  00000+0  76615-4 0  9998,2 45580  53.0524 188.7084 0001270 100.2817 259.8315 15.06389892309857
STARLINK-1335,45581,53.0525,0.0001279,15.06393882,546.3445543117914,548.1160632693809,1 45581U 20025BC  25330.75943109  .00002361  00000+0  17736-3 0  9991,2 45581  53.0525 178.6923 0001279 100.0013 260.1120 15.06393882309992
STARLINK-1337,45582,53.052,0.0001737,15.06404464,545.9949457869561,548.4008071230364,1 45582U 20025BD  25330.78154856  .00001244  00000+0  10238-3 0  9997,2 45582  53.0520 178.5939 0001737  76.7475 283.3708 15.06404464309992
